[{"OBJECT_NAME":"EDISON-1","OBJECT_ID":"2025-009B","EPOCH":"2026-03-09T19:16:13.822464","MEAN_MOTION":15.29042904,"ECCENTRICITY":0.00043285,"INCLINATION":97.4042,"RA_OF_ASC_NODE":151.6286,"ARG_OF_PERICENTER":306.4185,"MEAN_ANOMALY":53.6655,"EPHEMERIS_TYPE":0,"CLASSIFICATION_TYPE":"U","NORAD_CAT_ID":62610,"ELEMENT_SET_NO":999,"REV_AT_EPOCH":6375,"BSTAR":0.00052814963,"MEAN_MOTION_DOT":0.00014835,"MEAN_MOTION_DDOT":0},{"OBJECT_NAME":"STARLINK-35693","OBJECT_ID":"2025-263F","EPOCH":"2026-03-09T02:43:04.851840","MEAN_MOTION":15.27570779,"ECCENTRICITY":0.00015218,"INCLINATION":43.0037,"RA_OF_ASC_NODE":353.707,"ARG_OF_PERICENTER":279.7392,"MEAN_ANOMALY":80.3287,"EPHEMERIS_TYPE":0,"CLASSIFICATION_TYPE":"U","NORAD_CAT_ID":66490,"ELEMENT_SET_NO":999,"REV_AT_EPOCH":1881,"BSTAR":0.00097873932,"MEAN_MOTION_DOT":0.00026761,"MEAN_MOTION_DDOT":0}]
